1 16204U          19328.56041667  .00000000  00000-0  00000-0 0 00000
2 16204 097.7480 88.6780 0000000 000.0000 245.6790 15.01914300000000
1 16204U          19328.97222222  .00000000  00000-0  00000-0 0 00000
2 16204 097.7480 89.0840 0000000 000.0000 309.4290 15.01914300000000
1 16204U          19329.21111111  .00000000  00000-0  00000-0 0 00000
2 16204 097.7480 89.3190 0000000 000.0000 159.4300 15.01914300000000
1 16204U          19329.59305556  .00000000  00000-0  00000-0 0 00000
2 16204 097.7480 89.6960 0000000 000.0000 061.9310 15.01914300000000
1 16204U          19329.94305556  .00000000  00000-0  00000-0 0 00000
2 16204 097.7480 90.0410 0000000 000.0000 151.9310 15.01914300000000
1 16204U          19330.27013889  .00000000  00000-0  00000-0 0 00000
2 16204 097.7480 90.3630 0000000 000.0000 118.1820 15.01914300000000
1 16204U          19330.50763889  .00000000  00000-0  00000-0 0 00000
2 16204 097.7480 90.5980 0000000 000.0000 320.6820 15.01914300000000
1 16204U          19330.95625000  .00000000  00000-0  00000-0 0 00000
2 16204 097.7480 91.0400 0000000 000.0000 223.1830 15.01914300000000
1 16204U          19331.24930556  .00000000  00000-0  00000-0 0 00000
2 16204 097.7480 91.3290 0000000 000.0000 005.6840 15.01914300000000
1 16204U          19331.59166667  .00000000  00000-0  00000-0 0 00000
2 16204 097.7480 91.6660 0000000 000.0000 054.4340 15.01914300000000
1 16204U          19331.91250000  .00000000  00000-0  00000-0 0 00000
2 16204 097.7480 91.9830 0000000 000.0000 346.9350 15.01914300000000
1 16204U          19332.20694444  .00000000  00000-0  00000-0 0 00000
2 16204 097.7480 92.2730 0000000 000.0000 136.9360 15.01914300000000
1 16204U          19332.49375000  .00000000  00000-0  00000-0 0 00000
2 16204 097.7480 92.5560 0000000 000.0000 245.6860 15.01914300000000
1 16204U          19332.89583333  .00000000  00000-0  00000-0 0 00000
2 16204 097.7480 92.9520 0000000 000.0000 256.9370 15.01914300000000
